CTC1_L_00287016-03
1 10062U 22157BO  26075.70033565  .00000000  00000+0  00000-0 0  9994
2 10062  65.0000 180.0000 0000000   0.0000   0.0000 15.18623435    10
CTC1_L_00287016-04
1 10063U 24286RD  26075.70033565  .00000000  00000+0  00000-0 0  9990
2 10063  65.0000 180.0000 0000000   0.0000  90.0000 15.18623435    10
CTC1_L_00287017-01
1 10064U 23126XO  26075.70033565  .00000000  00000+0  00000-0 0  9993
2 10064  65.0000 192.0000 0000000   0.0000 192.0000 15.18623435    17
CTC1_L_00287017-02
1 10065U 22065AR  26075.70033565  .00000000  00000+0  00000-0 0  9995
2 10065  65.0000 192.0000 0000000   0.0000 282.0000 15.18623435    18
CTC1_L_00287017-03
1 10066U 26918WK  26075.70033565  .00000000  00000+0  00000-0 0  9997
2 10066  65.0000 192.0000 0000000   0.0000  12.0000 15.18623435    10
CTC1_L_00287017-04
1 10067U 25728NV  26075.70033565  .00000000  00000+0  00000-0 0  9996
2 10067  65.0000 192.0000 0000000   0.0000 102.0000 15.18623435    11
CTC1_L_00287018-01
1 10068U 25943WM  26075.70033565  .00000000  00000+0  00000-0 0  9996
2 10068  65.0000 204.0000 0000000   0.0000 204.0000 15.18623435    19
CTC1_L_00287018-02
1 10069U 26304WX  26075.70033565  .00000000  00000+0  00000-0 0  9999
2 10069  65.0000 204.0000 0000000   0.0000 294.0000 15.18623435    19
CTC1_L_00287018-03
1 10070U 22266CF  26075.70033565  .00000000  00000+0  00000-0 0  9994
2 10070  65.0000 204.0000 0000000   0.0000  24.0000 15.18623435    12
CTC1_L_00287018-04
1 10071U 25803HD  26075.70033565  .00000000  00000+0  00000-0 0  9995
2 10071  65.0000 204.0000 0000000   0.0000 114.0000 15.18623435    13
CTC1_L_00287019-01
1 10072U 26401PE  26075.70033565  .00000000  00000+0  00000-0 0  9991
2 10072  65.0000 216.0000 0000000   0.0000 216.0000 15.18623435    10
CTC1_L_00287019-02
1 10073U 26093MA  26075.70033565  .00000000  00000+0  00000-0 0  9999
2 10073  65.0000 216.0000 0000000   0.0000 306.0000 15.18623435    11
CTC1_L_00287019-03
1 10074U 25156NA  26075.70033565  .00000000  00000+0  00000-0 0  9999
2 10074  65.0000 216.0000 0000000   0.0000  36.0000 15.18623435    12
CTC1_L_00287019-04
1 10075U 22439XA  26075.70033565  .00000000  00000+0  00000-0 0  9991
2 10075  65.0000 216.0000 0000000   0.0000 126.0000 15.18623435    13
CTC1_L_00287020-01
1 10076U 24803IN  26075.70033565  .00000000  00000+0  00000-0 0  9999
2 10076  65.0000 228.0000 0000000   0.0000 228.0000 15.18623435    10
CTC1_L_00287020-02
1 10077U 22805QR  26075.70033565  .00000000  00000+0  00000-0 0  9990
2 10077  65.0000 228.0000 0000000   0.0000 318.0000 15.18623435    11
CTC1_L_00287020-03
1 10078U 25208MO  26075.70033565  .00000000  00000+0  00000-0 0  9991
2 10078  65.0000 228.0000 0000000   0.0000  48.0000 15.18623435    12
CTC1_L_00287020-04
1 10079U 24849NK  26075.70033565  .00000000  00000+0  00000-0 0  9992
2 10079  65.0000 228.0000 0000000   0.0000 138.0000 15.18623435    13
CTC1_L_00287021-01
1 10080U 26713HB  26075.70033565  .00000000  00000+0  00000-0 0  9996
2 10080  65.0000 240.0000 0000000   0.0000 240.0000 15.18623435    13
CTC1_L_00287021-02
1 10081U 24109LQ  26075.70033565  .00000000  00000+0  00000-0 0  9994
2 10081  65.0000 240.0000 0000000   0.0000 330.0000 15.18623435    14
CTC1_L_00287021-03
1 10082U 22696EL  26075.70033565  .00000000  00000+0  00000-0 0  9994
2 10082  65.0000 240.0000 0000000   0.0000  60.0000 15.18623435    15
CTC1_L_00287021-04
1 10083U 22060KD  26075.70033565  .00000000  00000+0  00000-0 0  9990
2 10083  65.0000 240.0000 0000000   0.0000 150.0000 15.18623435    16
CTC1_L_00287022-01
1 10084U 26110UN  26075.70033565  .00000000  00000+0  00000-0 0  9991
2 10084  65.0000 252.0000 0000000   0.0000 252.0000 15.18623435    13
CTC1_L_00287022-02
1 10085U 25719SC  26075.70033565  .00000000  00000+0  00000-0 0  9996
2 10085  65.0000 252.0000 0000000   0.0000 342.0000 15.18623435    14
CTC1_L_00287022-03
1 10086U 26715BK  26075.70033565  .00000000  00000+0  00000-0 0  9994
2 10086  65.0000 252.0000 0000000   0.0000  72.0000 15.18623435    15
CTC1_L_00287022-04
1 10087U 22464AR  26075.70033565  .00000000  00000+0  00000-0 0  9992
2 10087  65.0000 252.0000 0000000   0.0000 162.0000 15.18623435    16
CTC1_L_00287023-01
1 10088U 23584YN  26075.70033565  .00000000  00000+0  00000-0 0  9997
2 10088  65.0000 264.0000 0000000   0.0000 264.0000 15.18623435    13
CTC1_L_00287023-02
1 10089U 25868QI  26075.70033565  .00000000  00000+0  00000-0 0  9995
2 10089  65.0000 264.0000 0000000   0.0000 354.0000 15.18623435    14
CTC1_L_00287023-03
1 10090U 26381WI  26075.70033565  .00000000  00000+0  00000-0 0  9998
2 10090  65.0000 264.0000 0000000   0.0000  84.0000 15.18623435    16
CTC1_L_00287023-04
1 10091U 25830MF  26075.70033565  .00000000  00000+0  00000-0 0  9997
2 10091  65.0000 264.0000 0000000   0.0000 174.0000 15.18623435    17
CTC1_L_00287024-01
1 10092U 23548IH  26075.70033565  .00000000  00000+0  00000-0 0  9992
2 10092  65.0000 276.0000 0000000   0.0000 276.0000 15.18623435    14
CTC1_L_00287024-02
1 10093U 25944UN  26075.70033565  .00000000  00000+0  00000-0 0  9995
2 10093  65.0000 276.0000 0000000   0.0000   6.0000 15.18623435    16
CTC1_L_00287024-03
1 10094U 23137RS  26075.70033565  .00000000  00000+0  00000-0 0  9998
2 10094  65.0000 276.0000 0000000   0.0000  96.0000 15.18623435    16
CTC1_L_00287024-04
1 10095U 24811UW  26075.70033565  .00000000  00000+0  00000-0 0  9999
2 10095  65.0000 276.0000 0000000   0.0000 186.0000 15.18623435    17
CTC1_L_00287025-01
1 10096U 25545JU  26075.70033565  .00000000  00000+0  00000-0 0  9995
2 10096  65.0000 288.0000 0000000   0.0000 288.0000 15.18623435    14
CTC1_L_00287025-02
1 10097U 25334IN  26075.70033565  .00000000  00000+0  00000-0 0  9992
2 10097  65.0000 288.0000 0000000   0.0000  18.0000 15.18623435    16
CTC1_L_00287025-03
1 10098U 24321WN  26075.70033565  .00000000  00000+0  00000-0 0  9998
2 10098  65.0000 288.0000 0000000   0.0000 108.0000 15.18623435    17
CTC1_L_00287025-04
1 10099U 23385JU  26075.70033565  .00000000  00000+0  00000-0 0  9998
2 10099  65.0000 288.0000 0000000   0.0000 198.0000 15.18623435    17
CTC1_L_00287026-01
1 10100U 24696XH  26075.70033565  .00000000  00000+0  00000-0 0  9997
2 10100  65.0000 300.0000 0000000   0.0000 300.0000 15.18623435    10
CTC1_L_00287026-02
1 10101U 24037BL  26075.70033565  .00000000  00000+0  00000-0 0  9997
2 10101  65.0000 300.0000 0000000   0.0000  30.0000 15.18623435    11
CTC1_L_00287026-03
1 10102U 24948NV  26075.70033565  .00000000  00000+0  00000-0 0  9999
2 10102  65.0000 300.0000 0000000   0.0000 120.0000 15.18623435    12
CTC1_L_00287026-04
1 10103U 25812MT  26075.70033565  .00000000  00000+0  00000-0 0  9991
2 10103  65.0000 300.0000 0000000   0.0000 210.0000 15.18623435    13
CTC1_L_00287027-01
1 10104U 22709GD  26075.70033565  .00000000  00000+0  00000-0 0  9994
2 10104  65.0000 312.0000 0000000   0.0000 312.0000 15.18623435    10
CTC1_L_00287027-02
1 10105U 25190JS  26075.70033565  .00000000  00000+0  00000-0 0  9992
2 10105  65.0000 312.0000 0000000   0.0000  42.0000 15.18623435    11
CTC1_L_00287027-03
1 10106U 23241SX  26075.70033565  .00000000  00000+0  00000-0 0  9998
2 10106  65.0000 312.0000 0000000   0.0000 132.0000 15.18623435    12
CTC1_L_00287027-04
1 10107U 24281PJ  26075.70033565  .00000000  00000+0  00000-0 0  9994
2 10107  65.0000 312.0000 0000000   0.0000 222.0000 15.18623435    13
CTC1_L_00287028-01
1 10108U 26740UQ  26075.70033565  .00000000  00000+0  00000-0 0  9997
2 10108  65.0000 324.0000 0000000   0.0000 324.0000 15.18623435    10
CTC1_L_00287028-02
1 10109U 26846LT  26075.70033565  .00000000  00000+0  00000-0 0  9995
2 10109  65.0000 324.0000 0000000   0.0000  54.0000 15.18623435    11
CTC1_L_00287028-03
1 10110U 26263DB  26075.70033565  .00000000  00000+0  00000-0 0  9990
2 10110  65.0000 324.0000 0000000   0.0000 144.0000 15.18623435    13
CTC1_L_00287028-04
1 10111U 22027X   26075.70033565  .00000000  00000+0  00000-0 0  9995
2 10111  65.0000 324.0000 0000000   0.0000 234.0000 15.18623435    14
CTC1_L_00287029-01
1 10112U 25992EV  26075.70033565  .00000000  00000+0  00000-0 0  9990
2 10112  65.0000 336.0000 0000000   0.0000 336.0000 15.18623435    11
CTC1_L_00287029-02
1 10113U 23190JQ  26075.70033565  .00000000  00000+0  00000-0 0  9999
2 10113  65.0000 336.0000 0000000   0.0000  66.0000 15.18623435    12
CTC1_L_00287029-03
1 10114U 23219OX  26075.70033565  .00000000  00000+0  00000-0 0  9992
2 10114  65.0000 336.0000 0000000   0.0000 156.0000 15.18623435    13
CTC1_L_00287029-04
1 10115U 23619JB  26075.70033565  .00000000  00000+0  00000-0 0  9997
2 10115  65.0000 336.0000 0000000   0.0000 246.0000 15.18623435    14
CTC1_L_00287030-01
1 10116U 23653VD  26075.70033565  .00000000  00000+0  00000-0 0  9996
2 10116  65.0000 348.0000 0000000   0.0000 348.0000 15.18623435    11
CTC1_L_00287030-02
1 10117U 23415NO  26075.70033565  .00000000  00000+0  00000-0 0  9993
2 10117  65.0000 348.0000 0000000   0.0000  78.0000 15.18623435    12
CTC1_L_00287030-03
1 10118U 23561KY  26075.70033565  .00000000  00000+0  00000-0 0  9996
2 10118  65.0000 348.0000 0000000   0.0000 168.0000 15.18623435    13
CTC1_L_00287030-04
1 10119U 23402OB  26075.70033565  .00000000  00000+0  00000-0 0  9991
2 10119  65.0000 348.0000 0000000   0.0000 258.0000 15.18623435    14
